{
  "type": "FeatureCollection",
  "features": [
    {
      "type": "Feature",
      "properties": {
        "norad_id": 39773,
        "name": "EUTELSAT 3B",
        "group": "eutelsat",
        "lat": 0.04818828169683837,
        "lon": 152.2386533956525,
        "alt_km": 35783.139669984565,
        "timestamp": "2025-12-21T03:56:50.525642+00:00",
        "meta_object_name": "EUTELSAT 3B",
        "meta_object_id": "2014-030A",
        "meta_epoch": "2025-12-20T18:22:52.425984",
        "meta_mean_motion": 1.00272605,
        "meta_eccentricity": 0.0004148,
        "meta_inclination": 0.0611,
        "meta_ra_of_asc_node": 7.2123,
        "meta_arg_of_pericenter": 225.9286,
        "meta_mean_anomaly": 135.2673,
        "meta_ephemeris_type": 0,
        "meta_classification_type": "U",
        "meta_norad_cat_id": 39773,
        "meta_element_set_no": 999,
        "meta_rev_at_epoch": 4227,
        "meta_bstar": 0,
        "meta_mean_motion_dot": 4.3e-07,
        "meta_mean_motion_ddot": 0,
        "tle_line1": "1 39773U 14030A   25354.76588456  .00000043  00000+0  00000+0 0  9990",
        "tle_line2": "2 39773   0.0611   7.2123 0004148 225.9286 135.2673  1.00272605 42270"
      },
      "geometry": {
        "type": "Point",
        "coordinates": [
          152.2386533956525,
          0.04818828169683837
        ]
      }
    },
    {
      "type": "Feature",
      "properties": {
        "norad_id": 40425,
        "name": "EUTELSAT 115 WEST B",
        "group": "eutelsat",
        "lat": -0.008657864226271711,
        "lon": 34.28956781575034,
        "alt_km": 35786.78219782222,
        "timestamp": "2025-12-21T03:56:50.525667+00:00",
        "meta_object_name": "EUTELSAT 115 WEST B",
        "meta_object_id": "2015-010B",
        "meta_epoch": "2025-12-20T14:23:46.907808",
        "meta_mean_motion": 1.00268579,
        "meta_eccentricity": 2.15e-05,
        "meta_inclination": 0.0116,
        "meta_ra_of_asc_node": 154.8644,
        "meta_arg_of_pericenter": 161.3344,
        "meta_mean_anomaly": 234.2819,
        "meta_ephemeris_type": 0,
        "meta_classification_type": "U",
        "meta_norad_cat_id": 40425,
        "meta_element_set_no": 999,
        "meta_rev_at_epoch": 3960,
        "meta_bstar": 0,
        "meta_mean_motion_dot": -1e-08,
        "meta_mean_motion_ddot": 0,
        "tle_line1": "1 40425U 15010B   25354.59984847 -.00000001  00000+0  00000+0 0  9995",
        "tle_line2": "2 40425   0.0116 154.8644 0000215 161.3344 234.2819  1.00268579 39602"
      },
      "geometry": {
        "type": "Point",
        "coordinates": [
          34.28956781575034,
          -0.008657864226271711
        ]
      }
    },
    {
      "type": "Feature",
      "properties": {
        "norad_id": 40875,
        "name": "EUTELSAT 8 WEST B",
        "group": "eutelsat",
        "lat": 0.055482986864914326,
        "lon": 141.1551097040134,
        "alt_km": 35797.77223805425,
        "timestamp": "2025-12-21T03:56:50.525681+00:00",
        "meta_object_name": "EUTELSAT 8 WEST B",
        "meta_object_id": "2015-039B",
        "meta_epoch": "2025-12-20T18:19:45.224832",
        "meta_mean_motion": 1.00271065,
        "meta_eccentricity": 0.0004277,
        "meta_inclination": 0.0633,
        "meta_ra_of_asc_node": 358.8474,
        "meta_arg_of_pericenter": 271.6888,
        "meta_mean_anomaly": 85.9999,
        "meta_ephemeris_type": 0,
        "meta_classification_type": "U",
        "meta_norad_cat_id": 40875,
        "meta_element_set_no": 999,
        "meta_rev_at_epoch": 3786,
        "meta_bstar": 0,
        "meta_mean_motion_dot": -4.2e-07,
        "meta_mean_motion_ddot": 0,
        "tle_line1": "1 40875U 15039B   25354.76371788 -.00000042  00000+0  00000+0 0  9993",
        "tle_line2": "2 40875   0.0633 358.8474 0004277 271.6888  85.9999  1.00271065 37862"
      },
      "geometry": {
        "type": "Point",
        "coordinates": [
          141.1551097040134,
          0.055482986864914326
        ]
      }
    },
    {
      "type": "Feature",
      "properties": {
        "norad_id": 41310,
        "name": "EUTELSAT 9B",
        "group": "eutelsat",
        "lat": 0.06988960243511767,
        "lon": 158.14071916141955,
        "alt_km": 35794.48785095021,
        "timestamp": "2025-12-21T03:56:50.525692+00:00",
        "meta_object_name": "EUTELSAT 9B",
        "meta_object_id": "2016-005A",
        "meta_epoch": "2025-12-20T18:24:29.771136",
        "meta_mean_motion": 1.00272737,
        "meta_eccentricity": 0.000447,
        "meta_inclination": 0.0629,
        "meta_ra_of_asc_node": 71.7045,
        "meta_arg_of_pericenter": 203.8934,
        "meta_mean_anomaly": 99.1175,
        "meta_ephemeris_type": 0,
        "meta_classification_type": "U",
        "meta_norad_cat_id": 41310,
        "meta_element_set_no": 999,
        "meta_rev_at_epoch": 3632,
        "meta_bstar": 0,
        "meta_mean_motion_dot": 8.5e-07,
        "meta_mean_motion_ddot": 0,
        "tle_line1": "1 41310U 16005A   25354.76701124  .00000085  00000+0  00000+0 0  9999",
        "tle_line2": "2 41310   0.0629  71.7045 0004470 203.8934  99.1175  1.00272737 36321"
      },
      "geometry": {
        "type": "Point",
        "coordinates": [
          158.14071916141955,
          0.06988960243511767
        ]
      }
    },
    {
      "type": "Feature",
      "properties": {
        "norad_id": 41382,
        "name": "EUTELSAT 65 WEST A",
        "group": "eutelsat",
        "lat": 0.07456941136838159,
        "lon": 83.99471230266539,
        "alt_km": 35794.39694299409,
        "timestamp": "2025-12-21T03:56:50.525703+00:00",
        "meta_object_name": "EUTELSAT 65 WEST A",
        "meta_object_id": "2016-014A",
        "meta_epoch": "2025-12-20T18:03:24.291072",
        "meta_mean_motion": 1.00273983,
        "meta_eccentricity": 0.0002123,
        "meta_inclination": 0.053,
        "meta_ra_of_asc_node": 332.7718,
        "meta_arg_of_pericenter": 299.9872,
        "meta_mean_anomaly": 22.4723,
        "meta_ephemeris_type": 0,
        "meta_classification_type": "U",
        "meta_norad_cat_id": 41382,
        "meta_element_set_no": 999,
        "meta_rev_at_epoch": 3574,
        "meta_bstar": 0,
        "meta_mean_motion_dot": -2.53e-06,
        "meta_mean_motion_ddot": 0,
        "tle_line1": "1 41382U 16014A   25354.75236448 -.00000253  00000+0  00000+0 0  9997",
        "tle_line2": "2 41382   0.0530 332.7718 0002123 299.9872  22.4723  1.00273983 35745"
      },
      "geometry": {
        "type": "Point",
        "coordinates": [
          83.99471230266539,
          0.07456941136838159
        ]
      }
    },
    {
      "type": "Feature",
      "properties": {
        "norad_id": 41589,
        "name": "EUTELSAT 117 WEST B",
        "group": "eutelsat",
        "lat": -0.010027039696734033,
        "lon": 32.215696777027034,
        "alt_km": 35784.94714470539,
        "timestamp": "2025-12-21T03:56:50.525714+00:00",
        "meta_object_name": "EUTELSAT 117 WEST B",
        "meta_object_id": "2016-038B",
        "meta_epoch": "2025-12-20T16:05:44.642976",
        "meta_mean_motion": 1.00273449,
        "meta_eccentricity": 4.35e-05,
        "meta_inclination": 0.0079,
        "meta_ra_of_asc_node": 146.2318,
        "meta_arg_of_pericenter": 177.0977,
        "meta_mean_anomaly": 250.626,
        "meta_ephemeris_type": 0,
        "meta_classification_type": "U",
        "meta_norad_cat_id": 41589,
        "meta_element_set_no": 999,
        "meta_rev_at_epoch": 3487,
        "meta_bstar": 0,
        "meta_mean_motion_dot": 1.1e-07,
        "meta_mean_motion_ddot": 0,
        "tle_line1": "1 41589U 16038B   25354.67065559  .00000011  00000+0  00000+0 0  9997",
        "tle_line2": "2 41589   0.0079 146.2318 0000435 177.0977 250.6260  1.00273449 34873"
      },
      "geometry": {
        "type": "Point",
        "coordinates": [
          32.215696777027034,
          -0.010027039696734033
        ]
      }
    },
    {
      "type": "Feature",
      "properties": {
        "norad_id": 42741,
        "name": "EUTELSAT 172B",
        "group": "eutelsat",
        "lat": -0.021661905484742096,
        "lon": -38.8130908295899,
        "alt_km": 35786.125360270984,
        "timestamp": "2025-12-21T03:56:50.525724+00:00",
        "meta_object_name": "EUTELSAT 172B",
        "meta_object_id": "2017-029B",
        "meta_epoch": "2025-12-20T14:02:56.404320",
        "meta_mean_motion": 1.00271431,
        "meta_eccentricity": 2.99e-05,
        "meta_inclination": 0.0374,
        "meta_ra_of_asc_node": 127.3356,
        "meta_arg_of_pericenter": 281.9552,
        "meta_mean_anomaly": 62.8625,
        "meta_ephemeris_type": 0,
        "meta_classification_type": "U",
        "meta_norad_cat_id": 42741,
        "meta_element_set_no": 999,
        "meta_rev_at_epoch": 3194,
        "meta_bstar": 0,
        "meta_mean_motion_dot": 1.8e-07,
        "meta_mean_motion_ddot": 0,
        "tle_line1": "1 42741U 17029B   25354.58537505  .00000018  00000+0  00000+0 0  9991",
        "tle_line2": "2 42741   0.0374 127.3356 0000299 281.9552  62.8625  1.00271431 31948"
      },
      "geometry": {
        "type": "Point",
        "coordinates": [
          -38.8130908295899,
          -0.021661905484742096
        ]
      }
    }
  ]
}